[{"OBJECT_NAME":"GRAVITAS","OBJECT_ID":"2026-067CH","EPOCH":"2026-04-20T22:12:32.438880","MEAN_MOTION":14.84194594,"ECCENTRICITY":0.0001638,"INCLINATION":97.76,"RA_OF_ASC_NODE":70.0281,"ARG_OF_PERICENTER":178.9108,"MEAN_ANOMALY":181.211,"EPHEMERIS_TYPE":0,"CLASSIFICATION_TYPE":"U","NORAD_CAT_ID":68495,"ELEMENT_SET_NO":999,"REV_AT_EPOCH":318,"BSTAR":4.4402e-5,"MEAN_MOTION_DOT":3.2e-6,"MEAN_MOTION_DDOT":0},{"OBJECT_NAME":"ICEYE-X73","OBJECT_ID":"2026-067CJ","EPOCH":"2026-04-22T00:51:44.973216","MEAN_MOTION":14.91944017,"ECCENTRICITY":0.00032394,"INCLINATION":97.7573,"RA_OF_ASC_NODE":71.1828,"ARG_OF_PERICENTER":110.54,"MEAN_ANOMALY":249.6167,"EPHEMERIS_TYPE":0,"CLASSIFICATION_TYPE":"U","NORAD_CAT_ID":68496,"ELEMENT_SET_NO":999,"REV_AT_EPOCH":335,"BSTAR":0.00024216776,"MEAN_MOTION_DOT":2.396e-5,"MEAN_MOTION_DDOT":0},{"OBJECT_NAME":"ICEYE-X75","OBJECT_ID":"2026-067CK","EPOCH":"2026-04-22T00:52:13.755648","MEAN_MOTION":14.91925358,"ECCENTRICITY":0.00029754,"INCLINATION":97.7555,"RA_OF_ASC_NODE":71.1782,"ARG_OF_PERICENTER":106.452,"MEAN_ANOMALY":253.7026,"EPHEMERIS_TYPE":0,"CLASSIFICATION_TYPE":"U","NORAD_CAT_ID":68497,"ELEMENT_SET_NO":999,"REV_AT_EPOCH":335,"BSTAR":0.00024502595,"MEAN_MOTION_DOT":2.423e-5,"MEAN_MOTION_DDOT":0},{"OBJECT_NAME":"TRANSPORTER-16 OBJECT CL","OBJECT_ID":"2026-067CL","EPOCH":"2026-04-21T20:17:14.053920","MEAN_MOTION":14.91244099,"ECCENTRICITY":9.278e-5,"INCLINATION":97.7512,"RA_OF_ASC_NODE":70.9578,"ARG_OF_PERICENTER":216.8623,"MEAN_ANOMALY":143.2532,"EPHEMERIS_TYPE":0,"CLASSIFICATION_TYPE":"U","NORAD_CAT_ID":68498,"ELEMENT_SET_NO":999,"REV_AT_EPOCH":332,"BSTAR":0.00025105607,"MEAN_MOTION_DOT":2.442e-5,"MEAN_MOTION_DDOT":0},{"OBJECT_NAME":"TRANSPORTER-16 OBJECT CM","OBJECT_ID":"2026-067CM","EPOCH":"2026-04-22T01:03:19.255104","MEAN_MOTION":14.91393952,"ECCENTRICITY":0.00010333,"INCLINATION":97.7545,"RA_OF_ASC_NODE":71.1662,"ARG_OF_PERICENTER":147.3066,"MEAN_ANOMALY":212.8216,"EPHEMERIS_TYPE":0,"CLASSIFICATION_TYPE":"U","NORAD_CAT_ID":68499,"ELEMENT_SET_NO":999,"REV_AT_EPOCH":335,"BSTAR":0.0001216313,"MEAN_MOTION_DOT":1.159e-5,"MEAN_MOTION_DDOT":0},{"OBJECT_NAME":"ICEYE-X74","OBJECT_ID":"2026-067CN","EPOCH":"2026-04-21T20:12:49.732992","MEAN_MOTION":14.91442866,"ECCENTRICITY":0.00018574,"INCLINATION":97.7582,"RA_OF_ASC_NODE":70.9774,"ARG_OF_PERICENTER":154.1723,"MEAN_ANOMALY":205.9589,"EPHEMERIS_TYPE":0,"CLASSIFICATION_TYPE":"U","NORAD_CAT_ID":68500,"ELEMENT_SET_NO":999,"REV_AT_EPOCH":332,"BSTAR":0.00022546988,"MEAN_MOTION_DOT":2.198e-5,"MEAN_MOTION_DDOT":0},{"OBJECT_NAME":"TRANSPORTER-16 OBJECT CP","OBJECT_ID":"2026-067CP","EPOCH":"2026-04-21T21:54:05.691168","MEAN_MOTION":14.91246851,"ECCENTRICITY":0.0002617,"INCLINATION":97.7593,"RA_OF_ASC_NODE":71.0412,"ARG_OF_PERICENTER":185.6903,"MEAN_ANOMALY":174.4286,"EPHEMERIS_TYPE":0,"CLASSIFICATION_TYPE":"U","NORAD_CAT_ID":68501,"ELEMENT_SET_NO":999,"REV_AT_EPOCH":333,"BSTAR":0.00017339689,"MEAN_MOTION_DOT":1.669e-5,"MEAN_MOTION_DDOT":0},{"OBJECT_NAME":"ICEYE-X76","OBJECT_ID":"2026-067CQ","EPOCH":"2026-04-21T23:24:35.101728","MEAN_MOTION":14.91511446,"ECCENTRICITY":0.00020583,"INCLINATION":97.7589,"RA_OF_ASC_NODE":71.1121,"ARG_OF_PERICENTER":147.5228,"MEAN_ANOMALY":212.6117,"EPHEMERIS_TYPE":0,"CLASSIFICATION_TYPE":"U","NORAD_CAT_ID":68502,"ELEMENT_SET_NO":999,"REV_AT_EPOCH":334,"BSTAR":0.00023129348,"MEAN_MOTION_DOT":2.26e-5,"MEAN_MOTION_DDOT":0},{"OBJECT_NAME":"FLYLAB2","OBJECT_ID":"2026-067CR","EPOCH":"2026-04-21T22:04:36.412896","MEAN_MOTION":14.90536105,"ECCENTRICITY":0.00036873,"INCLINATION":97.7532,"RA_OF_ASC_NODE":71.0192,"ARG_OF_PERICENTER":240.6962,"MEAN_ANOMALY":119.3888,"EPHEMERIS_TYPE":0,"CLASSIFICATION_TYPE":"U","NORAD_CAT_ID":68503,"ELEMENT_SET_NO":999,"REV_AT_EPOCH":333,"BSTAR":0.00016306926,"MEAN_MOTION_DOT":1.538e-5,"MEAN_MOTION_DDOT":0},{"OBJECT_NAME":"ICEYE-X72","OBJECT_ID":"2026-067CS","EPOCH":"2026-04-22T00:55:37.927488","MEAN_MOTION":14.9176871,"ECCENTRICITY":0.00027934,"INCLINATION":97.7589,"RA_OF_ASC_NODE":71.1833,"ARG_OF_PERICENTER":126.2709,"MEAN_ANOMALY":233.8768,"EPHEMERIS_TYPE":0,"CLASSIFICATION_TYPE":"U","NORAD_CAT_ID":68504,"ELEMENT_SET_NO":999,"REV_AT_EPOCH":335,"BSTAR":0.00024591452,"MEAN_MOTION_DOT":2.423e-5,"MEAN_MOTION_DDOT":0},{"OBJECT_NAME":"GEMS2-AMETHYST","OBJECT_ID":"2026-067CT","EPOCH":"2026-04-21T22:06:47.313216","MEAN_MOTION":14.90676701,"ECCENTRICITY":0.00040467,"INCLINATION":97.7574,"RA_OF_ASC_NODE":71.0251,"ARG_OF_PERICENTER":217.9138,"MEAN_ANOMALY":142.1796,"EPHEMERIS_TYPE":0,"CLASSIFICATION_TYPE":"U","NORAD_CAT_ID":68505,"ELEMENT_SET_NO":999,"REV_AT_EPOCH":333,"BSTAR":0.00038805338,"MEAN_MOTION_DOT":3.751e-5,"MEAN_MOTION_DDOT":0},{"OBJECT_NAME":"STARLINK-37262","OBJECT_ID":"2026-068A","EPOCH":"2026-04-22T14:31:42.059424","MEAN_MOTION":15.80986147,"ECCENTRICITY":0.0002247,"INCLINATION":53.1573,"RA_OF_ASC_NODE":289.2413,"ARG_OF_PERICENTER":170.5237,"MEAN_ANOMALY":189.5828,"EPHEMERIS_TYPE":0,"CLASSIFICATION_TYPE":"U","NORAD_CAT_ID":68508,"ELEMENT_SET_NO":999,"REV_AT_EPOCH":361,"BSTAR":0.0014324,"MEAN_MOTION_DOT":0.00293365,"MEAN_MOTION_DDOT":0},{"OBJECT_NAME":"STARLINK-36292","OBJECT_ID":"2026-068B","EPOCH":"2026-04-22T14:30:36.900864","MEAN_MOTION":15.80917497,"ECCENTRICITY":9.8e-5,"INCLINATION":53.1571,"RA_OF_ASC_NODE":289.2358,"ARG_OF_PERICENTER":154.1143,"MEAN_ANOMALY":205.9928,"EPHEMERIS_TYPE":0,"CLASSIFICATION_TYPE":"U","NORAD_CAT_ID":68509,"ELEMENT_SET_NO":999,"REV_AT_EPOCH":361,"BSTAR":0.00093769,"MEAN_MOTION_DOT":0.0018886,"MEAN_MOTION_DDOT":0},{"OBJECT_NAME":"STARLINK-37260","OBJECT_ID":"2026-068C","EPOCH":"2026-04-22T14:29:32.582112","MEAN_MOTION":15.80909843,"ECCENTRICITY":9.4e-5,"INCLINATION":53.157,"RA_OF_ASC_NODE":289.2301,"ARG_OF_PERICENTER":110.4505,"MEAN_ANOMALY":249.6619,"EPHEMERIS_TYPE":0,"CLASSIFICATION_TYPE":"U","NORAD_CAT_ID":68510,"ELEMENT_SET_NO":999,"REV_AT_EPOCH":361,"BSTAR":0.0007364,"MEAN_MOTION_DOT":0.00147399,"MEAN_MOTION_DDOT":0},{"OBJECT_NAME":"STARLINK-37280","OBJECT_ID":"2026-068D","EPOCH":"2026-04-22T11:25:16.665312","MEAN_MOTION":15.81154981,"ECCENTRICITY":0.0002936,"INCLINATION":53.1574,"RA_OF_ASC_NODE":289.8543,"ARG_OF_PERICENTER":322.6977,"MEAN_ANOMALY":37.3842,"EPHEMERIS_TYPE":0,"CLASSIFICATION_TYPE":"U","NORAD_CAT_ID":68511,"ELEMENT_SET_NO":999,"REV_AT_EPOCH":359,"BSTAR":-0.0025867,"MEAN_MOTION_DOT":-0.00489999,"MEAN_MOTION_DDOT":0},{"OBJECT_NAME":"STARLINK-37286","OBJECT_ID":"2026-068E","EPOCH":"2026-04-22T14:26:18.210624","MEAN_MOTION":15.80899259,"ECCENTRICITY":0.0006356,"INCLINATION":53.1569,"RA_OF_ASC_NODE":289.2161,"ARG_OF_PERICENTER":311.5435,"MEAN_ANOMALY":48.5042,"EPHEMERIS_TYPE":0,"CLASSIFICATION_TYPE":"U","NORAD_CAT_ID":68512,"ELEMENT_SET_NO":999,"REV_AT_EPOCH":361,"BSTAR":0.001696,"MEAN_MOTION_DOT":0.00348586,"MEAN_MOTION_DDOT":0}]
