GRAVITAS
1 68495U 26067CH  26110.92537545  .00000320  00000+0  44402-4 0  9995
2 68495  97.7600  70.0281 0001638 178.9108 181.2110 14.84194594  3188
ICEYE-X73
1 68496U 26067CJ  26112.03593719  .00002396  00000+0  24217-3 0  9991
2 68496  97.7573  71.1828 0003239 110.5400 249.6167 14.91944017  3354
ICEYE-X75
1 68497U 26067CK  26112.03627032  .00002423  00000+0  24503-3 0  9997
2 68497  97.7555  71.1782 0002975 106.4520 253.7026 14.91925358  3354
TRANSPORTER-16 OBJECT CL
1 68498U 26067CL  26111.84530155  .00002442  00000+0  25106-3 0  9996
2 68498  97.7512  70.9578 0000927 216.8623 143.2532 14.91244099  3321
TRANSPORTER-16 OBJECT CM
1 68499U 26067CM  26112.04397286  .00001159  00000+0  12163-3 0  9999
2 68499  97.7545  71.1662 0001033 147.3066 212.8216 14.91393952  3351
ICEYE-X74
1 68500U 26067CN  26111.84224228  .00002198  00000+0  22547-3 0  9995
2 68500  97.7582  70.9774 0001857 154.1723 205.9589 14.91442866  3328
TRANSPORTER-16 OBJECT CP
1 68501U 26067CP  26111.91256587  .00001669  00000+0  17340-3 0  9994
2 68501  97.7593  71.0412 0002617 185.6903 174.4286 14.91246851  3337
ICEYE-X76
1 68502U 26067CQ  26111.97540627  .00002260  00000+0  23129-3 0  9992
2 68502  97.7589  71.1121 0002058 147.5228 212.6117 14.91511446  3341
FLYLAB2
1 68503U 26067CR  26111.91986589  .00001538  00000+0  16307-3 0  9995
2 68503  97.7532  71.0192 0003687 240.6962 119.3888 14.90536105  3331
ICEYE-X72
1 68504U 26067CS  26112.03863342  .00002423  00000+0  24591-3 0  9999
2 68504  97.7589  71.1833 0002793 126.2709 233.8768 14.91768710  3353
GEMS2-AMETHYST
1 68505U 26067CT  26111.92138094  .00003751  00000+0  38805-3 0  9994
2 68505  97.7574  71.0251 0004046 217.9138 142.1796 14.90676701  3336
STARLINK-37262
1 68508U 26068A   26112.60534791  .00293365  00000+0  14324-2 0  9999
2 68508  53.1573 289.2413 0002247 170.5237 189.5828 15.80986147  3612
STARLINK-36292
1 68509U 26068B   26112.60459376  .00188860  00000+0  93769-3 0  9999
2 68509  53.1571 289.2358 0000980 154.1143 205.9928 15.80917497  3611
STARLINK-37260
1 68510U 26068C   26112.60384933  .00147399  00000+0  73640-3 0  9995
2 68510  53.1570 289.2301 0000940 110.4505 249.6619 15.80909843  3611
STARLINK-37280
1 68511U 26068D   26112.47588733 -.00489999  00000+0 -25867-2 0  9999
2 68511  53.1574 289.8543 0002936 322.6977  37.3842 15.81154981  3590
STARLINK-37286
1 68512U 26068E   26112.60159966  .00348586  00000+0  16960-2 0  9995
2 68512  53.1569 289.2161 0006356 311.5435  48.5042 15.80899259  3613
